STARLINK-1205
1 15184C 20012G   21326.14338782  .00006650  00000-0  44542-3 0  3260
2 15184  53.0517 228.0947 0001959  67.4712  37.8384 15.06402373    13
